[{"OBJECT_NAME":"SWARM B","OBJECT_ID":"2013-067A","EPOCH":"2026-03-09T22:20:48.706656","MEAN_MOTION":15.27862638,"ECCENTRICITY":0.00036996,"INCLINATION":87.749,"RA_OF_ASC_NODE":12.4162,"ARG_OF_PERICENTER":86.3179,"MEAN_ANOMALY":273.8493,"EPHEMERIS_TYPE":0,"CLASSIFICATION_TYPE":"U","NORAD_CAT_ID":39451,"ELEMENT_SET_NO":999,"REV_AT_EPOCH":66808,"BSTAR":0.00020534236,"MEAN_MOTION_DOT":5.616e-5,"MEAN_MOTION_DDOT":0},{"OBJECT_NAME":"STARLINK-35979","OBJECT_ID":"2025-278U","EPOCH":"2026-03-09T19:29:23.275680","MEAN_MOTION":15.27593202,"ECCENTRICITY":8.763e-5,"INCLINATION":42.9998,"RA_OF_ASC_NODE":114.0328,"ARG_OF_PERICENTER":288.7277,"MEAN_ANOMALY":71.348,"EPHEMERIS_TYPE":0,"CLASSIFICATION_TYPE":"U","NORAD_CAT_ID":66809,"ELEMENT_SET_NO":999,"REV_AT_EPOCH":1522,"BSTAR":0.0011270022,"MEAN_MOTION_DOT":0.00030893,"MEAN_MOTION_DDOT":0}]
